[{"OBJECT_NAME":"OBJECT E","OBJECT_ID":"2025-055E","EPOCH":"2026-03-09T22:44:31.516800","MEAN_MOTION":15.14943489,"ECCENTRICITY":0.00151584,"INCLINATION":97.6347,"RA_OF_ASC_NODE":207.9935,"ARG_OF_PERICENTER":118.7219,"MEAN_ANOMALY":241.5538,"EPHEMERIS_TYPE":0,"CLASSIFICATION_TYPE":"U","NORAD_CAT_ID":63295,"ELEMENT_SET_NO":999,"REV_AT_EPOCH":5397,"BSTAR":0.00069679591,"MEAN_MOTION_DOT":0.00012971,"MEAN_MOTION_DDOT":0},{"OBJECT_NAME":"CARBSAR","OBJECT_ID":"2026-004AL","EPOCH":"2026-03-09T21:38:55.142304","MEAN_MOTION":15.18376766,"ECCENTRICITY":0.00049276,"INCLINATION":97.4551,"RA_OF_ASC_NODE":69.3924,"ARG_OF_PERICENTER":346.0062,"MEAN_ANOMALY":14.1035,"EPHEMERIS_TYPE":0,"CLASSIFICATION_TYPE":"U","NORAD_CAT_ID":67397,"ELEMENT_SET_NO":999,"REV_AT_EPOCH":869,"BSTAR":0.00041216985,"MEAN_MOTION_DOT":8.41e-5,"MEAN_MOTION_DDOT":0}]
